     2              NAVIGATION DATA                         RINEX VERSION / TYPE
CCRINEXN V1.6.0 UX  CDDIS               02-JAN-20 18:31     PGM / RUN BY / DATE 
IGS BROADCAST EPHEMERIS FILE                                COMMENT             
    0.7451D-08 -0.1490D-07 -0.5960D-07  0.1192D-06          ION ALPHA           
    0.9216D+05 -0.1147D+06 -0.1311D+06  0.7209D+06          ION BETA            
   -0.279396772385D-08-0.532907051820D-14   405504     2086 DELTA-UTC: A0,A1,T,W
    18                                                      LEAP SECONDS        
                                                            END OF HEADER       
 7 20  1  1  6  0  0.0-0.182392075658D-03-0.829913915368D-11 0.000000000000D+00
    0.680000000000D+02 0.238125000000D+02 0.491377610707D-08 0.959320953580D+00
    0.134482979775D-05 0.132241501706D-01 0.638514757156D-05 0.515370477104D+04
    0.280800000000D+06-0.147148966789D-06 0.256870643483D+01 0.134110450745D-06
    0.954018244198D+00 0.254531250000D+03-0.242087969814D+01-0.838570644119D-08
   -0.135719938994D-09 0.100000000000D+01 0.208600000000D+04 0.000000000000D+00
    0.200000000000D+01 0.000000000000D+00-0.111758708954D-07 0.680000000000D+02
    0.273618000000D+06 0.400000000000D+01 0.000000000000D+00 0.000000000000D+00
 8 20  1  1  6  0  0.0-0.187028199434D-04-0.125055521494D-11 0.000000000000D+00
    0.190000000000D+02 0.472187500000D+02 0.432017995284D-08-0.221674627009D+01
    0.244192779064D-05 0.495166564360D-02 0.809691846371D-05 0.515360635185D+04
    0.280800000000D+06-0.106170773506D-06-0.164768675830D+01-0.540167093277D-07
    0.969929211868D+00 0.232218750000D+03-0.218811331330D+00-0.794640242813D-08
    0.137862885400D-09 0.100000000000D+01 0.208600000000D+04 0.000000000000D+00
    0.200000000000D+01 0.000000000000D+00 0.512227416039D-08 0.190000000000D+02
    0.273618000000D+06 0.400000000000D+01 0.000000000000D+00 0.000000000000D+00
 9 20  1  1  6  0  0.0-0.122043769807D-03-0.909494701773D-11 0.000000000000D+00
    0.440000000000D+02 0.100000000000D+01 0.464769359509D-08-0.192944510074D+01
    0.130385160446D-07 0.171686627436D-02 0.926293432713D-05 0.515353659630D+04
    0.280800000000D+06 0.260770320892D-07 0.149360594588D+01 0.223517417908D-07
    0.952185981728D+00 0.197343750000D+03 0.169970301961D+01-0.801711965950D-08
    0.180364655769D-09 0.100000000000D+01 0.208600000000D+04 0.000000000000D+00
    0.200000000000D+01 0.000000000000D+00 0.139698386192D-08 0.440000000000D+02
    0.273618000000D+06 0.400000000000D+01 0.000000000000D+00 0.000000000000D+00
10 20  1  1  6  0  0.0-0.193338375539D-03-0.138697942020D-10 0.000000000000D+00
    0.760000000000D+02-0.809687500000D+02 0.446590030839D-08-0.350312954089D+00
   -0.435672700405D-05 0.525825214572D-02 0.745058059692D-05 0.515366571617D+04
    0.280800000000D+06 0.894069671631D-07 0.459046089981D+00 0.782310962677D-07
    0.964720531545D+00 0.237625000000D+03-0.271501537353D+01-0.813533886952D-08
   -0.240367155114D-09 0.100000000000D+01 0.208600000000D+04 0.000000000000D+00
    0.200000000000D+01 0.000000000000D+00 0.186264514923D-08 0.760000000000D+02
    0.276942000000D+06 0.400000000000D+01 0.000000000000D+00 0.000000000000D+00
12 20  1  1  6  0  0.0 0.167123507708D-03-0.409272615798D-11 0.000000000000D+00
    0.650000000000D+02 0.202812500000D+02 0.410731394325D-08 0.355217825825D+00
    0.862404704094D-06 0.776006141678D-02 0.863522291183D-05 0.515377269173D+04
    0.280800000000D+06-0.521540641785D-07-0.261104214736D+01 0.745058059692D-07
    0.980425451593D+00 0.226000000000D+03 0.109473549160D+01-0.792175854447D-08
   -0.305369862738D-09 0.100000000000D+01 0.208600000000D+04 0.000000000000D+00
    0.200000000000D+01 0.000000000000D+00-0.125728547573D-07 0.650000000000D+02
    0.273622000000D+06 0.400000000000D+01 0.000000000000D+00 0.000000000000D+00
13 20  1  1  6  0  0.0-0.229361467063D-04 0.250111042988D-11 0.000000000000D+00
    0.670000000000D+02 0.167812500000D+02 0.422660462648D-08 0.297622006075D+01
    0.879168510437D-06 0.416793208569D-02 0.960752367973D-05 0.515366567612D+04
    0.280800000000D+06 0.130385160446D-07 0.163426190433D+01 0.614672899246D-07
    0.967426192681D+00 0.197500000000D+03 0.117853051315D+01-0.775996609088D-08
    0.285011871889D-09 0.100000000000D+01 0.208600000000D+04 0.000000000000D+00
    0.200000000000D+01 0.000000000000D+00-0.111758708954D-07 0.670000000000D+02
    0.279018000000D+06 0.400000000000D+01 0.000000000000D+00 0.000000000000D+00
14 20  1  1  6  0  0.0-0.414615496993D-04 0.227373675443D-11 0.000000000000D+00
    0.100000000000D+03 0.812500000000D+00 0.432268005698D-08-0.273320533057D+01
    0.104308128357D-06 0.107705316041D-01 0.962428748608D-05 0.515360219574D+04
    0.280800000000D+06 0.104308128357D-06 0.158831828326D+01-0.614672899246D-07
    0.960019172195D+00 0.192375000000D+03-0.193174978481D+01-0.765281877062D-08
    0.294297972978D-09 0.100000000000D+01 0.208600000000D+04 0.000000000000D+00
    0.200000000000D+01 0.000000000000D+00-0.977888703346D-08 0.100000000000D+03
    0.273618000000D+06 0.400000000000D+01 0.000000000000D+00 0.000000000000D+00
16 20  1  1  6  0  0.0-0.108921900392D-03-0.397903932026D-11 0.000000000000D+00
    0.780000000000D+02 0.975000000000D+01 0.403909681602D-08-0.149662745103D+01
    0.372529029846D-06 0.111849727109D-01 0.792928040028D-05 0.515369039726D+04
    0.280800000000D+06 0.162050127983D-06-0.259216116779D+01-0.175088644028D-06
    0.980701025860D+00 0.231187500000D+03 0.584237123021D+00-0.772710757933D-08
   -0.160006664920D-09 0.100000000000D+01 0.208600000000D+04 0.000000000000D+00
    0.200000000000D+01 0.000000000000D+00-0.102445483208D-07 0.780000000000D+02
    0.273618000000D+06 0.400000000000D+01 0.000000000000D+00 0.000000000000D+00
17 20  1  1  6  0  0.0 0.190850812942D-03 0.682121026330D-11 0.000000000000D+00
    0.770000000000D+02 0.594687500000D+02 0.397623705481D-08-0.252129938219D+01
    0.314228236675D-05 0.134603239130D-01 0.692903995514D-05 0.515362874412D+04
    0.280800000000D+06 0.165775418282D-06-0.157706676819D+01 0.912696123123D-07
    0.984014759136D+00 0.256125000000D+03-0.166912026220D+01-0.762674625602D-08
    0.202151277555D-09 0.100000000000D+01 0.208600000000D+04 0.000000000000D+00
    0.200000000000D+01 0.000000000000D+00-0.111758708954D-07 0.770000000000D+02
    0.273618000000D+06 0.400000000000D+01 0.000000000000D+00 0.000000000000D+00
18 20  1  1  6  0  0.0 0.110520049930D-03 0.250111042988D-11 0.000000000000D+00
    0.530000000000D+02-0.256250000000D+01 0.487198865217D-08 0.136439697030D+01
   -0.432133674622D-06 0.156376910163D-01 0.420026481152D-05 0.515365345573D+04
    0.280800000000D+06-0.270083546638D-06-0.638658474323D+00-0.294297933578D-06
    0.957033985450D+00 0.297750000000D+03 0.144978697047D+01-0.846178103857D-08
    0.960754304988D-10 0.100000000000D+01 0.208600000000D+04 0.000000000000D+00
    0.200000000000D+01 0.630000000000D+02-0.558793544769D-08 0.530000000000D+02
    0.273618000000D+06 0.400000000000D+01 0.000000000000D+00 0.000000000000D+00
19 20  1  1  6  0  0.0-0.218558125198D-03 0.511590769747D-11 0.000000000000D+00
    0.840000000000D+02 0.537812500000D+02 0.411231415153D-08 0.197085701708D+00
    0.288523733616D-05 0.915777776390D-02 0.707618892193D-05 0.515366560745D+04
    0.280800000000D+06-0.135973095894D-06-0.153118068368D+01-0.130385160446D-07
    0.982055060409D+00 0.257312500000D+03 0.154460691864D+01-0.804569227823D-08
    0.106075847056D-09 0.100000000000D+01 0.208600000000D+04 0.000000000000D+00
    0.200000000000D+01 0.000000000000D+00-0.153668224812D-07 0.840000000000D+02
    0.273618000000D+06 0.400000000000D+01 0.000000000000D+00 0.000000000000D+00
20 20  1  1  6  0  0.0 0.527734402567D-03 0.000000000000D+00 0.000000000000D+00
    0.740000000000D+02-0.842187500000D+02 0.525236163909D-08 0.119842054924D+01
   -0.446848571300D-05 0.509747222532D-02 0.622123479843D-05 0.515362369919D+04
    0.280800000000D+06 0.121071934700D-06 0.333173988114D+00 0.186264514923D-07
    0.932881254775D+00 0.241406250000D+03 0.254358297024D+01-0.849071081504D-08
   -0.245010205658D-09 0.100000000000D+01 0.208600000000D+04 0.000000000000D+00
    0.200000000000D+01 0.000000000000D+00-0.838190317154D-08 0.740000000000D+02
    0.277518000000D+06 0.400000000000D+01 0.000000000000D+00 0.000000000000D+00
21 20  1  1  6  0  0.0-0.623292289674D-04 0.568434188608D-11 0.000000000000D+00
    0.420000000000D+02-0.137500000000D+01 0.513271379813D-08-0.188126923053D+00
    0.279396772385D-07 0.247477476951D-01 0.449270009994D-05 0.515358530998D+04
    0.280800000000D+06-0.379979610443D-06-0.648985610959D+00-0.949949026108D-07
    0.951398972763D+00 0.292625000000D+03-0.138357339349D+01-0.896144470871D-08
    0.171078554680D-09 0.100000000000D+01 0.208600000000D+04 0.000000000000D+00
    0.200000000000D+01 0.000000000000D+00-0.102445483208D-07 0.420000000000D+02
    0.273618000000D+06 0.400000000000D+01 0.000000000000D+00 0.000000000000D+00
22 20  1  1  6  0  0.0-0.780202914029D-03-0.159161572810D-11 0.000000000000D+00
    0.670000000000D+02-0.801562500000D+02 0.519807366349D-08 0.290904653740D+01
   -0.419281423092D-05 0.694223179016D-02 0.659935176373D-05 0.515361407471D+04
    0.280800000000D+06 0.111758708954D-06 0.381106902746D+00 0.316649675369D-07
    0.929563451660D+00 0.232718750000D+03-0.124842573707D+01-0.830248868912D-08
   -0.138220043134D-09 0.100000000000D+01 0.208600000000D+04 0.000000000000D+00
    0.200000000000D+01 0.000000000000D+00-0.181607902050D-07 0.670000000000D+02
    0.273618000000D+06 0.400000000000D+01 0.000000000000D+00 0.000000000000D+00
